STARLINK-4572           
1 53692U 22105AW  26068.67304046  .00012459  00000+0  56421-3 0  9998
2 53692  97.6182 315.6347 0001842  18.3505 341.7796 15.21020685193556
IRIDE FM7               
1 66701U 25276AM  26068.75283777  .00010516  00000+0  50729-3 0  9998
2 66701  97.4286 144.0153 0003982  10.7537 349.3782 15.18866259 15329
